From: horizons@ssd.jpl.nasa.gov (Horizons Ephemeris System)
Subject: [Horizons] SMALL BODY #C(500@10)_T(SOHO (P/2003 T12)) (1/1)
Date: February 4, 2021 at 3:19:23 PM PST

Automated mail xmit by PORT_LOGIN, PID= 15228 Thu Feb  4 15:19:23 2021
++++++++++++++++++++++++++++++++ (part 1 of 1)  +++++++++++++++++++++++++++++++
*******************************************************************************
Ephemeris / PORT_LOGIN Thu Feb  4 15:19:10 2021 Pasadena, USA    / Horizons
*******************************************************************************
Target body name: SOHO (P/2003 T12)               {source: JPL#8}
Center body name: Sun (10)                        {source: DE431}
Center-site name: BODY CENTER
*******************************************************************************
Start time      : A.D. 2026-Jan-01 00:00:00.0000 TDB
Stop  time      : A.D. 2030-Jul-01 00:00:00.0000 TDB
Step-size       : 20160 minutes
*******************************************************************************
Center geodetic : 0.00000000,0.00000000,0.0000000 {E-lon(deg),Lat(deg),Alt(km)}
Center cylindric: 0.00000000,0.00000000,0.0000000 {E-lon(deg),Dxy(km),Dz(km)}
Center radii    : 696000.0 x 696000.0 x 696000.0 k{Equator, meridian, pole}    
Small perturbers: Yes                             {source: SB431-N16}
Output units    : AU-D
Output type     : GEOMETRIC cartesian states
Output format   : 3 (position, velocity, LT, range, range-rate)
Reference frame : Ecliptic of J2000.0
*******************************************************************************
Initial IAU76/J2000 heliocentric ecliptic osculating elements (au, days, deg.):
 EPOCH=  2456072.5 ! 2012-May-25.0000000 (TDB)    RMSW= n.a.                  
  EC= .7761661411908493   QR= .5748057249730697   TP= 2455952.9465752076      
  OM= 176.4657147869952   W= 217.6688329855281    IN= 11.47515445399187       
 Equivalent ICRF heliocentric equatorial cartesian coordinates (au, au/d):
  X=-1.800299770760705E+00  Y= 6.044070409057362E-01  Z= 1.508821487259301E-01
 VX=-1.299099925970802E-02 VY=-5.082113451756473E-03 VZ=-9.159972533264544E-04
Comet physical (GM= km^3/s^2; RAD= km):                                        
  GM= n.a.                RAD= n.a.                                           
  M1=  19.6     M2=  n.a.     k1=  21.75  k2= n.a.     PHCOF= n.a.            
*******************************************************************************
           JDTDB,            Calendar Date (TDB),                      X,                      Y,                      Z,                     VX,                     VY,                     VZ,                     LT,                     RG,                     RR,
**************************************************************************************************************************************************************************************************************************************************************************
$$SOE
2461405.500000000, A.D. 2026-Dec-31 00:00:00.0000, -3.307539723557196E+00, -2.907622439535618E+00,  6.244804336799608E-01,  3.900236610094648E-03, -1.809488288558148E-03,  2.783216322957734E-04,  2.568908943645495E-02,  4.447927954210700E+00, -1.678325825076826E-03,
2461419.500000000, A.D. 2027-Jan-14 00:00:00.0000, -3.251845861479030E+00, -2.931989252658258E+00,  6.281695274152864E-01,  4.056021446950566E-03, -1.670905896150482E-03,  2.485800408861284E-04,  2.554690021099904E-02,  4.423308652998903E+00, -1.838969119710118E-03,
2461433.500000000, A.D. 2027-Jan-28 00:00:00.0000, -3.193971116173879E+00, -2.954391093493096E+00,  6.314374457233041E-01,  4.211807855747303E-03, -1.528742184019943E-03,  2.181463553707077E-04,  2.539165859450069E-02,  4.396429400334539E+00, -2.001202286409242E-03,
2461447.500000000, A.D. 2027-Feb-11 00:00:00.0000, -3.133914751200946E+00, -2.974776284774481E+00,  6.342741793679239E-01,  4.367699707694123E-03, -1.382773682737185E-03,  1.869741427128679E-04,  2.522322949108904E-02,  4.367266805092678E+00, -2.165190205961995E-03,
2461461.500000000, A.D. 2027-Feb-25 00:00:00.0000, -3.071674544433751E+00, -2.993089809996822E+00,  6.366690459218888E-01,  4.523800714014412E-03, -1.232745210212099E-03,  1.550141325155727E-04,  2.504146371008111E-02,  4.335795035707314E+00, -2.331114267909379E-03,
2461475.500000000, A.D. 2027-Mar-11 00:00:00.0000, -3.007246931327995E+00, -3.009272948913469E+00,  6.386106523414191E-01,  4.680202116500867E-03, -1.078387011036848E-03,  1.222133356020859E-04,  2.484619753326783E-02,  4.301985745249273E+00, -2.499151901181519E-03,
2461489.500000000, A.D. 2027-Mar-25 00:00:00.0000, -2.940627024057670E+00, -3.023263100305446E+00,  6.400868215391748E-01,  4.837002378092448E-03, -9.194108156545116E-04,  8.851283791278655E-05,  2.463725251531378E-02,  4.265808036866508E+00, -2.669492653199575E-03,
2461503.500000000, A.D. 2027-Apr-08 00:00:00.0000, -2.871808531529962E+00, -3.034993422489607E+00,  6.410845138018788E-01,  4.994302620677889E-03, -7.554987424830971E-04,  5.384828077233367E-05,  2.441443424396217E-02,  4.227228249120226E+00, -2.842341400555426E-03,
2461517.500000000, A.D. 2027-Apr-22 00:00:00.0000, -2.800783743701513E+00, -3.044392407944439E+00,  6.415897467308413E-01,  5.152204420406417E-03, -5.863019510072515E-04,  1.814919286546936E-05,  2.417753118116431E-02,  4.186209755332686E+00, -3.017916821856419E-03,
2461531.500000000, A.D. 2027-May-06 00:00:00.0000, -2.727543510045870E+00, -3.051383442268647E+00,  6.415875011256443E-01,  5.310813493441044E-03, -4.114389082792217E-04, -1.866234527558232E-05,  2.392631350167225E-02,  4.142712762495759E+00, -3.196453940090158E-03,
2461545.500000000, A.D. 2027-May-20 00:00:00.0000, -2.652077135348425E+00, -3.055884246862762E+00,  6.410616115312211E-01,  5.470242216828778E-03, -2.304776915324498E-04, -5.667181867632253E-05,  2.366053124045019E-02,  4.096693990505137E+00, -3.378217001500901E-03,
2461559.500000000, A.D. 2027-Jun-03 00:00:00.0000, -2.574372449177678E+00, -3.057806125616478E+00,  6.399946684931224E-01,  5.630588263809111E-03, -4.293819672772671E-05, -9.597206393862671E-05,  2.337991240615937E-02,  4.048106345520379E+00, -3.563482526402607E-03,
2461573.500000000, A.D. 2027-Jun-17 00:00:00.0000, -2.494415915723700E+00, -3.057053386067050E+00,  6.383678865009337E-01,  5.791951788763698E-03,  1.517027818232557E-04, -1.366670962476069E-04,  2.308416207657277E-02,  3.996898763340821E+00, -3.752545411156303E-03,
2461587.500000000, A.D. 2027-Jul-01 00:00:00.0000, -2.412192575792682E+00, -3.053522584424392E+00,  6.361609430295952E-01,  5.954434455530861E-03,  3.540310804451569E-04, -1.788725855320590E-04,  2.277296028501961E-02,  3.943015843454786E+00, -3.945730084986344E-03,
2461601.500000000, A.D. 2027-Jul-15 00:00:00.0000, -2.327686071089512E+00, -3.047101593090030E+00,  6.333518066918753E-01,  6.118134057285255E-03,  5.647025264772715E-04, -2.227173189767953E-04,  2.244595966804341E-02,  3.886397441744190E+00, -4.143389875066604E-03,
2461615.500000000, A.D. 2027-Jul-29 00:00:00.0000, -2.240878706268728E+00, -3.037668572461290E+00,  6.299165376021284E-01,  6.283144428000043E-03,  7.844500791028227E-04, -2.683456510927374E-04,  2.210278307514225E-02,  3.826978256623922E+00, -4.345909006329389E-03,
2461629.500000000, A.D. 2027-Aug-12 00:00:00.0000, -2.151751461704514E+00, -3.025090785351828E+00,  6.258290494222405E-01,  6.449560614440407E-03,  1.014103249437101E-03, -3.159200384379007E-04,  2.174302062441615E-02,  3.764687319242967E+00, -4.553716247419418E-03,
2461643.500000000, A.D. 2027-Aug-26 00:00:00.0000, -2.060284100800478E+00, -3.009223055561788E+00,  6.210608529322386E-01,  6.617456922766079E-03,  1.254608220083132E-03, -3.656217974528374E-04,  2.136622587820100E-02,  3.699447331315961E+00, -4.767282535248754E-03,
2461657.500000000, A.D. 2027-Sep-09 00:00:00.0000, -1.966455485552989E+00, -2.989906191955696E+00,  6.155807531755585E-01,  6.786891883630567E-03,  1.507024645171898E-03, -4.176572064150884E-04,  2.097191300269036E-02,  3.631174173326948E+00, -4.987115452397043E-03,
2461671.500000000, A.D. 2027-Sep-23 00:00:00.0000, -1.870243726063424E+00, -2.966965168193624E+00,  6.093544676853534E-01,  6.957912190239858E-03,  1.772560664343877E-03, -4.722616225175617E-04,  2.055955284278731E-02,  3.559776224911043E+00, -5.213780565652256E-03,
2461685.500000000, A.D. 2027-Oct-07 00:00:00.0000, -1.771626433522156E+00, -2.940206834738773E+00,  6.023441891580863E-01,  7.130540836246469E-03,  2.052601913449872E-03, -5.297042238477927E-04,  2.012856797240360E-02,  3.485153507840300E+00, -5.447907251207332E-03,
2461699.500000000, A.D. 2027-Oct-21 00:00:00.0000, -1.670581115848227E+00, -2.909417218878349E+00,  5.945080664196584E-01,  7.304768261574188E-03,  2.348743366998011E-03, -5.902948328838500E-04,  1.967832725958876E-02,  3.407196745004986E+00, -5.690196017075194E-03,
2461713.500000000, A.D. 2027-Nov-04 00:00:00.0000, -1.567085672176206E+00, -2.874358307011724E+00,  5.857995756985808E-01,  7.480547277791328E-03,  2.662834691307795E-03, -6.543926360835893E-04,  1.920813957767906E-02,  3.325786271532778E+00, -5.941434833596271E-03,
2461727.500000000, A.D. 2027-Nov-18 00:00:00.0000, -1.461119064902192E+00, -2.834763995841527E+00,  5.761667723532596E-01,  7.657764516606818E-03,  2.997048763046715E-03, -7.224143398467846E-04,  1.871724575964264E-02,  3.240790641726807E+00, -6.202518156122740E-03,
2461741.500000000, A.D. 2027-Dec-02 00:00:00.0000, -1.352662517392294E+00, -2.790335240888220E+00,  5.655513965426010E-01,  7.836209848279757E-03,  3.353928607524158E-03, -7.948484935881459E-04,  1.820481034410077E-02,  3.152065199933540E+00, -6.474441012579640E-03,
2461755.500000000, A.D. 2027-Dec-16 00:00:00.0000, -1.241700948848485E+00, -2.740734269220777E+00,  5.538877427828620E-01,  8.015558183586284E-03,  3.736483372009266E-03, -8.722730874078672E-04,  1.766991230577059E-02,  3.059450475568688E+00, -6.758329890527132E-03,
